NORAD_CAT_ID,OBJECT_NAME,OBJECT_TYPE,EPOCH,MEAN_MOTION,ECCENTRICITY,INCLINATION,RA_OF_ASC_NODE,ARG_OF_PERICENTER,MEAN_ANOMALY,BSTAR,MEAN_MOTION_DOT,MEAN_MOTION_DDOT,TLE_LINE0,TLE_LINE1,TLE_LINE2,SEMIMAJOR_AXIS,PERIOD,APOGEE,PERIGEE,DECAYED
51726.0,STARLINK-3527,PAYLOAD,2022-09-12 22:00:00,15.08819783,0.0001965,53.2176,277.3085,45.0755,127.3341,0.0017656,0.00027908,0.0,0 STARLINK-3527,1 51726U 22016N   22255.91667824  .00027908  00000-0  17656-2 0  9994,2 51726  53.2176 277.3085 0001965  45.0755 127.3341 15.08819783  1301,6917.941999999999,95.439,541.1669999999998,538.448,0.0
51726.0,STARLINK-3527,PAYLOAD,2022-09-13 08:00:01,15.088412699999996,0.0002134999999999,53.2177,275.4395,43.1324,233.7609,-0.00023379,-4.007e-05,0.0,0 STARLINK-3527,1 51726U 22016N   22256.33334491 -.00004007  00000-0 -23379-3 0  9999,2 51726  53.2177 275.4395 0002135  43.1324 233.7609 15.08841270 32394,6917.877,95.437,541.2180000000002,538.265,0.0
51726.0,STARLINK-3527,PAYLOAD,2022-09-13 14:00:01,15.08847754,0.000215,53.2174,274.3168,41.191,154.3963,3.8943e-05,3.32e-06,0.0,0 STARLINK-3527,1 51726U 22016N   22256.58334491  .00000332  00000-0  38943-4 0  9995,2 51726  53.2174 274.3168 0002150  41.1910 154.3963 15.08847754  1304,6917.857,95.437,541.2090000000002,538.234,0.0
51726.0,STARLINK-3527,PAYLOAD,2022-09-13 22:00:00,15.08809221,0.0001889,53.2175,272.8186,44.9599,162.2355,0.0019734,0.00031232,0.0,0 STARLINK-3527,1 51726U 22016N   22256.91667824  .00031232  00000-0  19734-2 0  9999,2 51726  53.2175 272.8186 0001889  44.9599 162.2355 15.08809221  1300,6917.974,95.44,541.146,538.533,0.0
51726.0,STARLINK-3527,PAYLOAD,2022-09-14 14:00:01,15.08835373,0.0002084,53.2173,269.828,41.334,189.0133,0.00030651,4.593e-05,0.0,0 STARLINK-3527,1 51726U 22016N   22257.58334491  .00004593  00000-0  30651-3 0  9996,2 51726  53.2173 269.8280 0002084  41.3340 189.0133 15.08835373  1300,6917.895,95.438,541.201,538.318,0.0
51726.0,STARLINK-3527,PAYLOAD,2022-09-14 22:00:00,15.08817164,0.0001906999999999,53.2174,268.3301,46.8048,195.1403,0.0029073,0.00046257,0.0,0 STARLINK-3527,1 51726U 22016N   22257.91667824  .00046257  00000-0  29073-2 0  9990,2 51726  53.2174 268.3301 0001907  46.8048 195.1403 15.08817164  1303,6917.95,95.439,541.134,538.496,0.0
51726.0,STARLINK-3527,PAYLOAD,2022-09-15 14:00:01,15.08820139,0.0002115,53.217,265.3388,47.911,217.2175,-0.0030934,-0.00049159,0.0,0 STARLINK-3527,1 51726U 22016N   22258.58334491 -.00049159  00000-0 -30934-2 0  9999,2 51726  53.2170 265.3388 0002115  47.9110 217.2175 15.08820139  1303,6917.941,95.439,541.269,538.3430000000002,0.0
51726.0,STARLINK-3527,PAYLOAD,2022-09-15 16:00:00,15.08828562,0.0002065999999999,53.2172,264.9631,49.1201,308.895,-0.0051337,-0.0008105,0.0,0 STARLINK-3527,1 51726U 22016N   22258.66667824 -.00081050  00000-0 -51337-2 0  9993,2 51726  53.2172 264.9631 0002066  49.1201 308.8950 15.08828562 32749,6917.915,95.438,541.21,538.351,0.0
51726.0,STARLINK-3527,PAYLOAD,2022-09-16 04:43:41,15.08812386,0.0002157,53.2185,262.5839,47.7901,312.3274,-5.5352e-05,-1.168e-05,0.0,0 STARLINK-3527,1 51726U 22016N   22259.19701217 -.00001168  00000-0 -55352-4 0  9992,2 51726  53.2185 262.5839 0002157  47.7901 312.3274 15.08812386 32824,6917.965,95.439,541.322,538.3380000000002,0.0
51726.0,STARLINK-3527,PAYLOAD,2022-09-16 09:29:50,15.08824551,0.0001791,53.2186,261.6911,51.3919,308.7233,0.00021215,3.089e-05,0.0,0 STARLINK-3527,1 51726U 22016N   22259.39572060  .00003089  00000-0  21215-3 0  9998,2 51726  53.2186 261.6911 0001791  51.3919 308.7233 15.08824551 31795,6917.928000000001,95.439,541.0319999999998,538.554,0.0
51726.0,STARLINK-3527,PAYLOAD,2022-09-16 12:40:36,15.08832518,0.0001952,53.2185,261.097,47.5789,312.5368,0.0001171,1.576e-05,0.0,0 STARLINK-3527,1 51726U 22016N   22259.52819788  .00001576  00000-0  11710-3 0  9992,2 51726  53.2185 261.0970 0001952  47.5789 312.5368 15.08832518 32878,6917.903,95.438,541.119,538.418,0.0
51726.0,STARLINK-3527,PAYLOAD,2022-09-16 17:26:45,15.08836367,0.0001952,53.2186,260.2048,47.7114,312.4043,0.00014175,1.968e-05,0.0,0 STARLINK-3527,1 51726U 22016N   22259.72691721  .00001968  00000-0  14175-3 0  9992,2 51726  53.2186 260.2048 0001952  47.7114 312.4043 15.08836367 31841,6917.891,95.438,541.107,538.406,0.0
51726.0,STARLINK-3527,PAYLOAD,2022-09-17 07:45:13,15.0884231,0.0002032999999999,53.2177,257.5285,48.57100000000001,311.5457,0.00022067,3.226e-05,0.0,0 STARLINK-3527,1 51726U 22016N   22260.32307659  .00003226  00000-0  22067-3 0  9992,2 51726  53.2177 257.5285 0002033  48.5710 311.5457 15.08842310 31939,6917.873000000001,95.437,541.145,538.332,0.0
51726.0,STARLINK-3527,PAYLOAD,2022-09-17 17:17:32,15.08847432,0.0002049,53.2177,255.7444,48.8613,311.2556,0.00043589,6.657e-05,0.0,0 STARLINK-3527,1 51726U 22016N   22260.72051726  .00006657  00000-0  43589-3 0  9990,2 51726  53.2177 255.7444 0002049  48.8613 311.2556 15.08847432 33050,6917.858,95.437,541.14,538.305,0.0
51726.0,STARLINK-3527,PAYLOAD,2022-09-18 10:46:46,15.08857852,0.0002041,53.2173,252.4737,48.0476,312.069,0.00035411,5.355e-05,0.0,0 STARLINK-3527,1 51726U 22016N   22261.44915035  .00005355  00000-0  35411-3 0  9991,2 51726  53.2173 252.4737 0002041  48.0476 312.0690 15.08857852 32106,6917.826,95.436,541.1030000000002,538.279,0.0
51726.0,STARLINK-3527,PAYLOAD,2022-09-19 04:16:00,15.08857105,0.0002061,53.2173,249.2023,50.8634,309.2541,0.00019052,2.747e-05,0.0,0 STARLINK-3527,1 51726U 22016N   22262.17778370  .00002747  00000-0  19052-3 0  9996,2 51726  53.2173 249.2023 0002061  50.8634 309.2541 15.08857105 33270,6917.828,95.436,541.119,538.2669999999998,0.0
51726.0,STARLINK-3527,PAYLOAD,2022-09-19 10:37:33,15.08847956,0.0002195,53.2178,248.0137,46.1479,313.9694,7.3928e-06,-1.71e-06,0.0,0 STARLINK-3527,1 51726U 22016N   22262.44274612 -.00000171  00000-0  73928-5 0  9990,2 51726  53.2178 248.0137 0002195  46.1479 313.9694 15.08847956 33310,6917.856,95.437,541.24,538.203,0.0
51726.0,STARLINK-3527,PAYLOAD,2022-09-20 10:28:19,15.08840813,0.0002065999999999,53.2177,243.5535,46.1433,313.973,-0.00015033,-2.68e-05,0.0,0 STARLINK-3527,1 51726U 22016N   22263.43634114 -.00002680  00000-0 -15033-3 0  9996,2 51726  53.2177 243.5535 0002066  46.1433 313.9730 15.08840813 32403,6917.878000000002,95.438,541.172,538.314,0.0
51726.0,STARLINK-3527,PAYLOAD,2022-09-21 03:57:34,15.08847311,0.0001947,53.2177,240.2824,49.4431,310.673,4.537800000000001e-05,4.34e-06,0.0,0 STARLINK-3527,1 51726U 22016N   22264.16497912  .00000434  00000-0  45378-4 0  9999,2 51726  53.2177 240.2824 0001947  49.4431 310.6730 15.08847311 33572,6917.858,95.437,541.07,538.376,0.0
51726.0,STARLINK-3527,PAYLOAD,2022-09-21 10:19:07,15.08838356,0.0002065999999999,53.2175,239.0934,48.4591,311.6579,-7.0539e-05,-1.411e-05,0.0,0 STARLINK-3527,1 51726U 22016N   22264.42994333 -.00001411  00000-0 -70539-4 0  9992,2 51726  53.2175 239.0934 0002066  48.4591 311.6579 15.08838356 32555,6917.885,95.438,541.18,538.321,0.0
51726.0,STARLINK-3527,PAYLOAD,2022-09-22 06:59:08,15.08839999,0.0002112,53.2174,235.2285,38.5384,321.5759,4.4872e-05,4.26e-06,0.0,0 STARLINK-3527,1 51726U 22016N   22265.29106580  .00000426  00000-0  44872-4 0  9991,2 51726  53.2174 235.2285 0002112  38.5384 321.5759 15.08839999 32681,6917.88,95.438,541.206,538.284,0.0
51726.0,STARLINK-3527,PAYLOAD,2022-09-23 05:14:32,15.08834707,0.0001893,53.2177,231.0647,49.1001,311.0155,-2.9477999999999987e-06,-3.35e-06,0.0,0 STARLINK-3527,1 51726U 22016N   22266.21843136 -.00000335  00000-0 -29478-5 0  9996,2 51726  53.2177 231.0647 0001893  49.1001 311.0155 15.08834707 33888,6917.897,95.438,541.071,538.452,0.0
51726.0,STARLINK-3527,PAYLOAD,2022-09-23 10:00:41,15.088513699999998,0.0002106999999999,53.2187,230.1727,77.6957,282.4271,-0.00015391,-2.738e-05,0.0,0 STARLINK-3527,1 51726U 22016N   22266.41714703 -.00002738  00000-0 -15391-3 0  9991,2 51726  53.2187 230.1727 0002107  77.6957 282.4271 15.08851370 33912,6917.846,95.437,541.168,538.253,0.0
51726.0,STARLINK-3527,PAYLOAD,2022-09-24 09:51:28,15.08846688,0.0001935,53.218,225.712,46.2404,313.8748,0.0001972,2.852e-05,0.0,0 STARLINK-3527,1 51726U 22016N   22267.41074847  .00002852  00000-0  19720-3 0  9995,2 51726  53.2180 225.7120 0001935  46.2404 313.8748 15.08846688 34060,6917.86,95.437,541.064,538.386,0.0
51726.0,STARLINK-3527,PAYLOAD,2022-09-25 06:31:29,15.0885087,0.0001863,53.2177,221.8466,49.27,310.8454,0.00023757,3.496e-05,0.0,0 STARLINK-3527,1 51726U 22016N   22268.27186406  .00003496  00000-0  23757-3 0  9995,2 51726  53.2177 221.8466 0001863  49.2700 310.8454 15.08850870 33134,6917.847,95.437,541.001,538.423,0.0
51726.0,STARLINK-3527,PAYLOAD,2022-09-26 07:57:39,15.08839673,0.0001965,53.2182,217.0884,48.504,311.612,-3.239e-06,-3.4e-06,0.0,0 STARLINK-3527,1 51726U 22016N   22269.33170741 -.00000340  00000-0 -32390-5 0  9990,2 51726  53.2182 217.0884 0001965  48.5040 311.6120 15.08839673 34355,6917.880999999999,95.438,541.106,538.387,0.0
51726.0,STARLINK-3527,PAYLOAD,2022-09-27 03:02:16,15.08850985,0.0001973,53.2184,213.5209,50.5307,309.5859,0.00016691,2.37e-05,0.0,0 STARLINK-3527,1 51726U 22016N   22270.12658368  .00002370  00000-0  16691-3 0  9992,2 51726  53.2184 213.5209 0001973  50.5307 309.5859 15.08850985 33417,6917.847,95.437,541.077,538.347,0.0
51726.0,STARLINK-3527,PAYLOAD,2022-09-28 02:53:03,15.08846492,0.0001956999999999,53.2186,209.0609,52.9122,307.2048,0.00014284,1.986e-05,0.0,0 STARLINK-3527,1 51726U 22016N   22271.12018240  .00001986  00000-0  14284-3 0  9990,2 51726  53.2186 209.0609 0001957  52.9122 307.2048 15.08846492 34623,6917.861,95.437,541.0790000000002,538.372,0.0
51726.0,STARLINK-3527,PAYLOAD,2022-09-28 12:25:22,15.08838725,0.0002118,53.2187,207.2773,51.4927,308.6255,-4.9722e-05,-1.079e-05,0.0,0 STARLINK-3527,1 51726U 22016N   22271.51762482 -.00001079  00000-0 -49722-4 0  9998,2 51726  53.2187 207.2773 0002118  51.4927 308.6255 15.08838725 33627,6917.884,95.438,541.214,538.284,0.0
